[
  {
    "COMMENT": "GENERATED VIA SPACETRACK.ORG API",
    "ORIGINATOR": "18 SPCS",
    "NORAD_CAT_ID": "41335",
    "OBJECT_NAME": "SENTINEL 3A",
    "OBJECT_TYPE": "PAYLOAD",
    "CLASSIFICATION_TYPE": "U",
    "INTLDES": "16011A",
    "EPOCH": "2023-06-19 18:02:05",
    "EPOCH_MICROSECONDS": "385408",
    "MEAN_MOTION": "14.26735699",
    "ECCENTRICITY": "0.0001293",
    "INCLINATION": "98.6213",
    "RA_OF_ASC_NODE": "237.7644",
    "ARG_OF_PERICENTER": "91.0797",
    "MEAN_ANOMALY": "269.0531",
    "EPHEMERIS_TYPE": "0",
    "ELEMENT_SET_NO": "999",
    "REV_AT_EPOCH": "38214",
    "BSTAR": "0.00008632",
    "MEAN_MOTION_DOT": "0.00000165",
    "MEAN_MOTION_DDOT": "0",
    "FILE": "3937380",
    "TLE_LINE0": "0 SENTINEL 3A",
    "TLE_LINE1": "1 41335U 16011A   23170.75145122  .00000165  00000-0  86320-4 0  9990",
    "TLE_LINE2": "2 41335  98.6213 237.7644 0001293  91.0797 269.0531 14.26735699382144",
    "OBJECT_ID": "2016-011A",
    "OBJECT_NUMBER": "41335",
    "SEMIMAJOR_AXIS": "7180.800",
    "PERIOD": "100.930",
    "APOGEE": "803.593",
    "PERIGEE": "801.736",
    "DECAYED": "0"
  },
  {
    "COMMENT": "GENERATED VIA SPACETRACK.ORG API",
    "ORIGINATOR": "18 SPCS",
    "NORAD_CAT_ID": "41335",
    "OBJECT_NAME": "SENTINEL 3A",
    "OBJECT_TYPE": "PAYLOAD",
    "CLASSIFICATION_TYPE": "U",
    "INTLDES": "16011A",
    "EPOCH": "2023-06-19 21:24:03",
    "EPOCH_MICROSECONDS": "835584",
    "MEAN_MOTION": "14.26735759",
    "ECCENTRICITY": "0.0001291",
    "INCLINATION": "98.6212",
    "RA_OF_ASC_NODE": "237.9026",
    "ARG_OF_PERICENTER": "91.127",
    "MEAN_ANOMALY": "269.0058",
    "EPHEMERIS_TYPE": "0",
    "ELEMENT_SET_NO": "999",
    "REV_AT_EPOCH": "38216",
    "BSTAR": "0.00008751",
    "MEAN_MOTION_DOT": "0.00000168",
    "MEAN_MOTION_DDOT": "0",
    "FILE": "3937509",
    "TLE_LINE0": "0 SENTINEL 3A",
    "TLE_LINE1": "1 41335U 16011A   23170.89171106  .00000168  00000-0  87510-4 0  9991",
    "TLE_LINE2": "2 41335  98.6212 237.9026 0001291  91.1270 269.0058 14.26735759382167",
    "OBJECT_ID": "2016-011A",
    "OBJECT_NUMBER": "41335",
    "SEMIMAJOR_AXIS": "7180.800",
    "PERIOD": "100.930",
    "APOGEE": "803.592",
    "PERIGEE": "801.738",
    "DECAYED": "0"
  },
  {
    "COMMENT": "GENERATED VIA SPACETRACK.ORG API",
    "ORIGINATOR": "18 SPCS",
    "NORAD_CAT_ID": "41335",
    "OBJECT_NAME": "SENTINEL 3A",
    "OBJECT_TYPE": "PAYLOAD",
    "CLASSIFICATION_TYPE": "U",
    "INTLDES": "16011A",
    "EPOCH": "2023-06-20 04:08:00",
    "EPOCH_MICROSECONDS": "735936",
    "MEAN_MOTION": "14.26735927",
    "ECCENTRICITY": "0.000129",
    "INCLINATION": "98.6212",
    "RA_OF_ASC_NODE": "238.179",
    "ARG_OF_PERICENTER": "91.0637",
    "MEAN_ANOMALY": "269.0691",
    "EPHEMERIS_TYPE": "0",
    "ELEMENT_SET_NO": "999",
    "REV_AT_EPOCH": "38220",
    "BSTAR": "0.00008994",
    "MEAN_MOTION_DOT": "0.00000174",
    "MEAN_MOTION_DDOT": "0",
    "FILE": "3937572",
    "TLE_LINE0": "0 SENTINEL 3A",
    "TLE_LINE1": "1 41335U 16011A   23171.17223074  .00000174  00000-0  89940-4 0  9991",
    "TLE_LINE2": "2 41335  98.6212 238.1790 0001290  91.0637 269.0691 14.26735927382208",
    "OBJECT_ID": "2016-011A",
    "OBJECT_NUMBER": "41335",
    "SEMIMAJOR_AXIS": "7180.799",
    "PERIOD": "100.930",
    "APOGEE": "803.590",
    "PERIGEE": "801.738",
    "DECAYED": "0"
  },
  {
    "COMMENT": "GENERATED VIA SPACETRACK.ORG API",
    "ORIGINATOR": "18 SPCS",
    "NORAD_CAT_ID": "41335",
    "OBJECT_NAME": "SENTINEL 3A",
    "OBJECT_TYPE": "PAYLOAD",
    "CLASSIFICATION_TYPE": "U",
    "INTLDES": "16011A",
    "EPOCH": "2023-06-20 09:10:58",
    "EPOCH_MICROSECONDS": "409472",
    "MEAN_MOTION": "14.2673601",
    "ECCENTRICITY": "0.000129",
    "INCLINATION": "98.6212",
    "RA_OF_ASC_NODE": "238.3863",
    "ARG_OF_PERICENTER": "91.0739",
    "MEAN_ANOMALY": "269.0589",
    "EPHEMERIS_TYPE": "0",
    "ELEMENT_SET_NO": "999",
    "REV_AT_EPOCH": "38223",
    "BSTAR": "0.000088508",
    "MEAN_MOTION_DOT": "0.00000171",
    "MEAN_MOTION_DDOT": "0",
    "FILE": "3937902",
    "TLE_LINE0": "0 SENTINEL 3A",
    "TLE_LINE1": "1 41335U 16011A   23171.38262048  .00000171  00000-0  88508-4 0  9994",
    "TLE_LINE2": "2 41335  98.6212 238.3863 0001290  91.0739 269.0589 14.26736010382237",
    "OBJECT_ID": "2016-011A",
    "OBJECT_NUMBER": "41335",
    "SEMIMAJOR_AXIS": "7180.799",
    "PERIOD": "100.930",
    "APOGEE": "803.590",
    "PERIGEE": "801.737",
    "DECAYED": "0"
  },
  {
    "COMMENT": "GENERATED VIA SPACETRACK.ORG API",
    "ORIGINATOR": "18 SPCS",
    "NORAD_CAT_ID": "41335",
    "OBJECT_NAME": "SENTINEL 3A",
    "OBJECT_TYPE": "PAYLOAD",
    "CLASSIFICATION_TYPE": "U",
    "INTLDES": "16011A",
    "EPOCH": "2023-06-20 10:51:57",
    "EPOCH_MICROSECONDS": "635424",
    "MEAN_MOTION": "14.26736043",
    "ECCENTRICITY": "0.0001292",
    "INCLINATION": "98.6212",
    "RA_OF_ASC_NODE": "238.4554",
    "ARG_OF_PERICENTER": "91.0685",
    "MEAN_ANOMALY": "269.0643",
    "EPHEMERIS_TYPE": "0",
    "ELEMENT_SET_NO": "999",
    "REV_AT_EPOCH": "38224",
    "BSTAR": "0.000088457",
    "MEAN_MOTION_DOT": "0.0000017",
    "MEAN_MOTION_DDOT": "0",
    "FILE": "3938135",
    "TLE_LINE0": "0 SENTINEL 3A",
    "TLE_LINE1": "1 41335U 16011A   23171.45275041  .00000170  00000-0  88457-4 0  9991",
    "TLE_LINE2": "2 41335  98.6212 238.4554 0001292  91.0685 269.0643 14.26736043382245",
    "OBJECT_ID": "2016-011A",
    "OBJECT_NUMBER": "41335",
    "SEMIMAJOR_AXIS": "7180.799",
    "PERIOD": "100.930",
    "APOGEE": "803.591",
    "PERIGEE": "801.736",
    "DECAYED": "0"
  },
  {
    "COMMENT": "GENERATED VIA SPACETRACK.ORG API",
    "ORIGINATOR": "18 SPCS",
    "NORAD_CAT_ID": "41335",
    "OBJECT_NAME": "SENTINEL 3A",
    "OBJECT_TYPE": "PAYLOAD",
    "CLASSIFICATION_TYPE": "U",
    "INTLDES": "16011A",
    "EPOCH": "2023-06-20 17:35:54",
    "EPOCH_MICROSECONDS": "531456",
    "MEAN_MOTION": "14.26736158",
    "ECCENTRICITY": "0.0001288",
    "INCLINATION": "98.6212",
    "RA_OF_ASC_NODE": "238.7318",
    "ARG_OF_PERICENTER": "91.0843",
    "MEAN_ANOMALY": "269.0485",
    "EPHEMERIS_TYPE": "0",
    "ELEMENT_SET_NO": "999",
    "REV_AT_EPOCH": "38228",
    "BSTAR": "0.000085537",
    "MEAN_MOTION_DOT": "0.00000163",
    "MEAN_MOTION_DDOT": "0",
    "FILE": "3938309",
    "TLE_LINE0": "0 SENTINEL 3A",
    "TLE_LINE1": "1 41335U 16011A   23171.73327004  .00000163  00000-0  85537-4 0  9997",
    "TLE_LINE2": "2 41335  98.6212 238.7318 0001288  91.0843 269.0485 14.26736158382282",
    "OBJECT_ID": "2016-011A",
    "OBJECT_NUMBER": "41335",
    "SEMIMAJOR_AXIS": "7180.798",
    "PERIOD": "100.930",
    "APOGEE": "803.588",
    "PERIGEE": "801.738",
    "DECAYED": "0"
  },
  {
    "COMMENT": "GENERATED VIA SPACETRACK.ORG API",
    "ORIGINATOR": "18 SPCS",
    "NORAD_CAT_ID": "41335",
    "OBJECT_NAME": "SENTINEL 3A",
    "OBJECT_TYPE": "PAYLOAD",
    "CLASSIFICATION_TYPE": "U",
    "INTLDES": "16011A",
    "EPOCH": "2023-06-20 20:57:52",
    "EPOCH_MICROSECONDS": "976448",
    "MEAN_MOTION": "14.26736246",
    "ECCENTRICITY": "0.0001285",
    "INCLINATION": "98.6212",
    "RA_OF_ASC_NODE": "238.87",
    "ARG_OF_PERICENTER": "91.0619",
    "MEAN_ANOMALY": "269.0709",
    "EPHEMERIS_TYPE": "0",
    "ELEMENT_SET_NO": "999",
    "REV_AT_EPOCH": "38230",
    "BSTAR": "0.000088579",
    "MEAN_MOTION_DOT": "0.00000171",
    "MEAN_MOTION_DDOT": "0",
    "FILE": "3938544",
    "TLE_LINE0": "0 SENTINEL 3A",
    "TLE_LINE1": "1 41335U 16011A   23171.87352982  .00000171  00000-0  88579-4 0  9993",
    "TLE_LINE2": "2 41335  98.6212 238.8700 0001285  91.0619 269.0709 14.26736246382306",
    "OBJECT_ID": "2016-011A",
    "OBJECT_NUMBER": "41335",
    "SEMIMAJOR_AXIS": "7180.798",
    "PERIOD": "100.930",
    "APOGEE": "803.586",
    "PERIGEE": "801.740",
    "DECAYED": "0"
  },
  {
    "COMMENT": "GENERATED VIA SPACETRACK.ORG API",
    "ORIGINATOR": "18 SPCS",
    "NORAD_CAT_ID": "41335",
    "OBJECT_NAME": "SENTINEL 3A",
    "OBJECT_TYPE": "PAYLOAD",
    "CLASSIFICATION_TYPE": "U",
    "INTLDES": "16011A",
    "EPOCH": "2023-06-21 03:41:49",
    "EPOCH_MICROSECONDS": "868160",
    "MEAN_MOTION": "14.26736382",
    "ECCENTRICITY": "0.0001281",
    "INCLINATION": "98.6211",
    "RA_OF_ASC_NODE": "239.1463",
    "ARG_OF_PERICENTER": "91.0903",
    "MEAN_ANOMALY": "269.0424",
    "EPHEMERIS_TYPE": "0",
    "ELEMENT_SET_NO": "999",
    "REV_AT_EPOCH": "38234",
    "BSTAR": "0.000087585",
    "MEAN_MOTION_DOT": "0.00000168",
    "MEAN_MOTION_DDOT": "0",
    "FILE": "3938589",
    "TLE_LINE0": "0 SENTINEL 3A",
    "TLE_LINE1": "1 41335U 16011A   23172.15404940  .00000168  00000-0  87585-4 0  9999",
    "TLE_LINE2": "2 41335  98.6211 239.1463 0001281  91.0903 269.0424 14.26736382382346",
    "OBJECT_ID": "2016-011A",
    "OBJECT_NUMBER": "41335",
    "SEMIMAJOR_AXIS": "7180.798",
    "PERIOD": "100.930",
    "APOGEE": "803.582",
    "PERIGEE": "801.743",
    "DECAYED": "0"
  }
]